[{"OBJECT_NAME":"STARLINK-34404","OBJECT_ID":"2025-130E","EPOCH":"2026-03-09T10:22:16.782816","MEAN_MOTION":15.30195294,"ECCENTRICITY":0.00014278,"INCLINATION":53.1602,"RA_OF_ASC_NODE":89.7369,"ARG_OF_PERICENTER":86.1678,"MEAN_ANOMALY":273.9486,"EPHEMERIS_TYPE":0,"CLASSIFICATION_TYPE":"U","NORAD_CAT_ID":64442,"ELEMENT_SET_NO":999,"REV_AT_EPOCH":4066,"BSTAR":0.00087959595,"MEAN_MOTION_DOT":0.00025779,"MEAN_MOTION_DDOT":0},{"OBJECT_NAME":"CZ-4C R\/B","OBJECT_ID":"2015-069B","EPOCH":"2026-03-09T18:13:41.887776","MEAN_MOTION":15.30824061,"ECCENTRICITY":0.00587215,"INCLINATION":97.486,"RA_OF_ASC_NODE":137.7913,"ARG_OF_PERICENTER":156.3643,"MEAN_ANOMALY":204.0316,"EPHEMERIS_TYPE":0,"CLASSIFICATION_TYPE":"U","NORAD_CAT_ID":41039,"ELEMENT_SET_NO":999,"REV_AT_EPOCH":56689,"BSTAR":0.0003480254,"MEAN_MOTION_DOT":0.00010856,"MEAN_MOTION_DDOT":0}]
